[{"OBJECT_NAME":"STARLINK-36979","OBJECT_ID":"2026-039L","EPOCH":"2026-03-10T02:00:03.000384","MEAN_MOTION":15.83279655,"ECCENTRICITY":0.0001443,"INCLINATION":42.9986,"RA_OF_ASC_NODE":52.4307,"ARG_OF_PERICENTER":264.3278,"MEAN_ANOMALY":263.2861,"EPHEMERIS_TYPE":0,"CLASSIFICATION_TYPE":"U","NORAD_CAT_ID":67996,"ELEMENT_SET_NO":999,"REV_AT_EPOCH":294,"BSTAR":-0.0075435,"MEAN_MOTION_DOT":-0.01489963,"MEAN_MOTION_DDOT":0},{"OBJECT_NAME":"STARLINK-36994","OBJECT_ID":"2026-039M","EPOCH":"2026-03-10T02:00:03.000384","MEAN_MOTION":15.83730126,"ECCENTRICITY":0.0001459,"INCLINATION":42.9985,"RA_OF_ASC_NODE":52.3995,"ARG_OF_PERICENTER":259.9964,"MEAN_ANOMALY":279.7978,"EPHEMERIS_TYPE":0,"CLASSIFICATION_TYPE":"U","NORAD_CAT_ID":67997,"ELEMENT_SET_NO":999,"REV_AT_EPOCH":294,"BSTAR":-0.0079962,"MEAN_MOTION_DOT":-0.01598288,"MEAN_MOTION_DDOT":0},{"OBJECT_NAME":"STARLINK-36988","OBJECT_ID":"2026-039N","EPOCH":"2026-03-10T02:00:03.000384","MEAN_MOTION":15.83572353,"ECCENTRICITY":0.0001256,"INCLINATION":42.9986,"RA_OF_ASC_NODE":52.4096,"ARG_OF_PERICENTER":260.4491,"MEAN_ANOMALY":275.3262,"EPHEMERIS_TYPE":0,"CLASSIFICATION_TYPE":"U","NORAD_CAT_ID":67998,"ELEMENT_SET_NO":999,"REV_AT_EPOCH":294,"BSTAR":-0.0079317,"MEAN_MOTION_DOT":-0.01576343,"MEAN_MOTION_DDOT":0},{"OBJECT_NAME":"STARLINK-36926","OBJECT_ID":"2026-039P","EPOCH":"2026-03-10T02:00:03.000384","MEAN_MOTION":15.83843889,"ECCENTRICITY":0.0001359,"INCLINATION":42.9986,"RA_OF_ASC_NODE":52.3901,"ARG_OF_PERICENTER":266.5549,"MEAN_ANOMALY":277.271,"EPHEMERIS_TYPE":0,"CLASSIFICATION_TYPE":"U","NORAD_CAT_ID":67999,"ELEMENT_SET_NO":999,"REV_AT_EPOCH":294,"BSTAR":-0.0077205,"MEAN_MOTION_DOT":-0.01557363,"MEAN_MOTION_DDOT":0},{"OBJECT_NAME":"STARLINK-36931","OBJECT_ID":"2026-039Q","EPOCH":"2026-03-10T02:00:03.000384","MEAN_MOTION":15.8395797,"ECCENTRICITY":0.0001575,"INCLINATION":42.9986,"RA_OF_ASC_NODE":52.3806,"ARG_OF_PERICENTER":267.5816,"MEAN_ANOMALY":280.1362,"EPHEMERIS_TYPE":0,"CLASSIFICATION_TYPE":"U","NORAD_CAT_ID":68000,"ELEMENT_SET_NO":999,"REV_AT_EPOCH":294,"BSTAR":-0.0065837,"MEAN_MOTION_DOT":-0.0133409,"MEAN_MOTION_DDOT":0},{"OBJECT_NAME":"STARLINK-36903","OBJECT_ID":"2026-039R","EPOCH":"2026-03-10T02:00:03.000384","MEAN_MOTION":15.84182714,"ECCENTRICITY":0.0001437,"INCLINATION":42.9985,"RA_OF_ASC_NODE":52.3698,"ARG_OF_PERICENTER":257.0744,"MEAN_ANOMALY":294.64,"EPHEMERIS_TYPE":0,"CLASSIFICATION_TYPE":"U","NORAD_CAT_ID":68001,"ELEMENT_SET_NO":999,"REV_AT_EPOCH":294,"BSTAR":-0.0078748,"MEAN_MOTION_DOT":-0.01607476,"MEAN_MOTION_DDOT":0},{"OBJECT_NAME":"STARLINK-36898","OBJECT_ID":"2026-039S","EPOCH":"2026-03-10T02:00:03.000384","MEAN_MOTION":15.84459808,"ECCENTRICITY":0.0001428,"INCLINATION":42.9983,"RA_OF_ASC_NODE":52.3495,"ARG_OF_PERICENTER":253.1957,"MEAN_ANOMALY":306.4076,"EPHEMERIS_TYPE":0,"CLASSIFICATION_TYPE":"U","NORAD_CAT_ID":68002,"ELEMENT_SET_NO":999,"REV_AT_EPOCH":294,"BSTAR":-0.0077721,"MEAN_MOTION_DOT":-0.01607918,"MEAN_MOTION_DDOT":0},{"OBJECT_NAME":"STARLINK-36862","OBJECT_ID":"2026-039T","EPOCH":"2026-03-10T02:00:03.000384","MEAN_MOTION":15.84766473,"ECCENTRICITY":0.000139,"INCLINATION":42.9983,"RA_OF_ASC_NODE":52.3301,"ARG_OF_PERICENTER":261.5532,"MEAN_ANOMALY":305.7762,"EPHEMERIS_TYPE":0,"CLASSIFICATION_TYPE":"U","NORAD_CAT_ID":68003,"ELEMENT_SET_NO":999,"REV_AT_EPOCH":294,"BSTAR":-0.0076846,"MEAN_MOTION_DOT":-0.01612939,"MEAN_MOTION_DDOT":0},{"OBJECT_NAME":"STARLINK-36888","OBJECT_ID":"2026-039U","EPOCH":"2026-03-10T02:00:03.000384","MEAN_MOTION":15.84335462,"ECCENTRICITY":0.0001421,"INCLINATION":42.9985,"RA_OF_ASC_NODE":52.3599,"ARG_OF_PERICENTER":259.1481,"MEAN_ANOMALY":296.4906,"EPHEMERIS_TYPE":0,"CLASSIFICATION_TYPE":"U","NORAD_CAT_ID":68004,"ELEMENT_SET_NO":999,"REV_AT_EPOCH":294,"BSTAR":-0.0078301,"MEAN_MOTION_DOT":-0.01609863,"MEAN_MOTION_DDOT":0},{"OBJECT_NAME":"STARLINK-36910","OBJECT_ID":"2026-039V","EPOCH":"2026-03-10T02:00:03.000384","MEAN_MOTION":15.84600015,"ECCENTRICITY":0.0001375,"INCLINATION":42.9983,"RA_OF_ASC_NODE":52.3396,"ARG_OF_PERICENTER":266.8441,"MEAN_ANOMALY":296.6769,"EPHEMERIS_TYPE":0,"CLASSIFICATION_TYPE":"U","NORAD_CAT_ID":68005,"ELEMENT_SET_NO":999,"REV_AT_EPOCH":294,"BSTAR":-0.0077508,"MEAN_MOTION_DOT":-0.01613592,"MEAN_MOTION_DDOT":0},{"OBJECT_NAME":"STARLINK-36889","OBJECT_ID":"2026-039W","EPOCH":"2026-03-10T02:00:03.000384","MEAN_MOTION":15.84916005,"ECCENTRICITY":0.0001235,"INCLINATION":42.9982,"RA_OF_ASC_NODE":52.3197,"ARG_OF_PERICENTER":261.4983,"MEAN_ANOMALY":309.6564,"EPHEMERIS_TYPE":0,"CLASSIFICATION_TYPE":"U","NORAD_CAT_ID":68006,"ELEMENT_SET_NO":999,"REV_AT_EPOCH":294,"BSTAR":-0.0076031,"MEAN_MOTION_DOT":-0.01608093,"MEAN_MOTION_DDOT":0},{"OBJECT_NAME":"STARLINK-36592","OBJECT_ID":"2026-039X","EPOCH":"2026-03-10T02:00:03.000384","MEAN_MOTION":15.85068368,"ECCENTRICITY":0.0001342,"INCLINATION":42.9977,"RA_OF_ASC_NODE":52.3111,"ARG_OF_PERICENTER":262.5989,"MEAN_ANOMALY":312.3585,"EPHEMERIS_TYPE":0,"CLASSIFICATION_TYPE":"U","NORAD_CAT_ID":68007,"ELEMENT_SET_NO":999,"REV_AT_EPOCH":294,"BSTAR":-0.0075597,"MEAN_MOTION_DOT":-0.01610606,"MEAN_MOTION_DDOT":0},{"OBJECT_NAME":"STARLINK-36911","OBJECT_ID":"2026-039Y","EPOCH":"2026-03-10T02:00:03.000384","MEAN_MOTION":15.85202901,"ECCENTRICITY":0.0001415,"INCLINATION":42.9979,"RA_OF_ASC_NODE":52.3014,"ARG_OF_PERICENTER":257.2596,"MEAN_ANOMALY":321.5375,"EPHEMERIS_TYPE":0,"CLASSIFICATION_TYPE":"U","NORAD_CAT_ID":68008,"ELEMENT_SET_NO":999,"REV_AT_EPOCH":294,"BSTAR":-0.0075146,"MEAN_MOTION_DOT":-0.01611519,"MEAN_MOTION_DDOT":0},{"OBJECT_NAME":"STARLINK-36956","OBJECT_ID":"2026-039Z","EPOCH":"2026-03-10T02:00:03.000384","MEAN_MOTION":15.85340718,"ECCENTRICITY":0.0001346,"INCLINATION":42.9976,"RA_OF_ASC_NODE":52.2915,"ARG_OF_PERICENTER":256.5778,"MEAN_ANOMALY":325.9994,"EPHEMERIS_TYPE":0,"CLASSIFICATION_TYPE":"U","NORAD_CAT_ID":68009,"ELEMENT_SET_NO":999,"REV_AT_EPOCH":294,"BSTAR":-0.0073976,"MEAN_MOTION_DOT":-0.01598933,"MEAN_MOTION_DDOT":0},{"OBJECT_NAME":"STARLINK-36953","OBJECT_ID":"2026-039AA","EPOCH":"2026-03-10T02:00:03.000384","MEAN_MOTION":15.85599907,"ECCENTRICITY":0.0001249,"INCLINATION":42.9975,"RA_OF_ASC_NODE":52.2715,"ARG_OF_PERICENTER":262.1937,"MEAN_ANOMALY":328.0832,"EPHEMERIS_TYPE":0,"CLASSIFICATION_TYPE":"U","NORAD_CAT_ID":68010,"ELEMENT_SET_NO":999,"REV_AT_EPOCH":294,"BSTAR":-0.0074512,"MEAN_MOTION_DOT":-0.01626914,"MEAN_MOTION_DDOT":0},{"OBJECT_NAME":"STARLINK-36991","OBJECT_ID":"2026-039AB","EPOCH":"2026-03-10T02:00:03.000384","MEAN_MOTION":15.85726068,"ECCENTRICITY":0.000142,"INCLINATION":42.9974,"RA_OF_ASC_NODE":52.2622,"ARG_OF_PERICENTER":255.5794,"MEAN_ANOMALY":338.5125,"EPHEMERIS_TYPE":0,"CLASSIFICATION_TYPE":"U","NORAD_CAT_ID":68011,"ELEMENT_SET_NO":999,"REV_AT_EPOCH":294,"BSTAR":-0.0074118,"MEAN_MOTION_DOT":-0.01628368,"MEAN_MOTION_DDOT":0}]
