STARLINK-36979          
1 67996U 26039L   26069.08336806 -.01489963  00000+0 -75435-2 0  9991
2 67996  42.9986  52.4307 0001443 264.3278 263.2861 15.83279655  2946
STARLINK-36994          
1 67997U 26039M   26069.08336806 -.01598288  00000+0 -79962-2 0  9992
2 67997  42.9985  52.3995 0001459 259.9964 279.7978 15.83730126  2943
STARLINK-36988          
1 67998U 26039N   26069.08336806 -.01576343  00000+0 -79317-2 0  9995
2 67998  42.9986  52.4096 0001256 260.4491 275.3262 15.83572353  2949
STARLINK-36926          
1 67999U 26039P   26069.08336806 -.01557363  00000+0 -77205-2 0  9991
2 67999  42.9986  52.3901 0001359 266.5549 277.2710 15.83843889  2943
STARLINK-36931          
1 68000U 26039Q   26069.08336806 -.01334090  00000+0 -65837-2 0  9993
2 68000  42.9986  52.3806 0001575 267.5816 280.1362 15.83957970  2942
STARLINK-36903          
1 68001U 26039R   26069.08336806 -.01607476  00000+0 -78748-2 0  9990
2 68001  42.9985  52.3698 0001437 257.0744 294.6400 15.84182714  2942
STARLINK-36898          
1 68002U 26039S   26069.08336806 -.01607918  00000+0 -77721-2 0  9992
2 68002  42.9983  52.3495 0001428 253.1957 306.4076 15.84459808  2941
STARLINK-36862          
1 68003U 26039T   26069.08336806 -.01612939  00000+0 -76846-2 0  9999
2 68003  42.9983  52.3301 0001390 261.5532 305.7762 15.84766473  2941
STARLINK-36888          
1 68004U 26039U   26069.08336806 -.01609863  00000+0 -78301-2 0  9990
2 68004  42.9985  52.3599 0001421 259.1481 296.4906 15.84335462  2940
STARLINK-36910          
1 68005U 26039V   26069.08336806 -.01613592  00000+0 -77508-2 0  9993
2 68005  42.9983  52.3396 0001375 266.8441 296.6769 15.84600015  2941
STARLINK-36889          
1 68006U 26039W   26069.08336806 -.01608093  00000+0 -76031-2 0  9994
2 68006  42.9982  52.3197 0001235 261.4983 309.6564 15.84916005  2944
STARLINK-36592          
1 68007U 26039X   26069.08336806 -.01610606  00000+0 -75597-2 0  9994
2 68007  42.9977  52.3111 0001342 262.5989 312.3585 15.85068368  2947
STARLINK-36911          
1 68008U 26039Y   26069.08336806 -.01611519  00000+0 -75146-2 0  9999
2 68008  42.9979  52.3014 0001415 257.2596 321.5375 15.85202901  2940
STARLINK-36956          
1 68009U 26039Z   26069.08336806 -.01598933  00000+0 -73976-2 0  9993
2 68009  42.9976  52.2915 0001346 256.5778 325.9994 15.85340718  2948
STARLINK-36953          
1 68010U 26039AA  26069.08336806 -.01626914  00000+0 -74512-2 0  9993
2 68010  42.9975  52.2715 0001249 262.1937 328.0832 15.85599907  2940
STARLINK-36991          
1 68011U 26039AB  26069.08336806 -.01628368  00000+0 -74118-2 0  9991
2 68011  42.9974  52.2622 0001420 255.5794 338.5125 15.85726068  2946
